[{"OBJECT_NAME":"GONETS-M 21","OBJECT_ID":"2020-091B","EPOCH":"2026-03-09T23:14:21.366240","MEAN_MOTION":12.4288111,"ECCENTRICITY":0.00158579,"INCLINATION":82.5026,"RA_OF_ASC_NODE":2.8767,"ARG_OF_PERICENTER":52.2231,"MEAN_ANOMALY":308.0282,"EPHEMERIS_TYPE":0,"CLASSIFICATION_TYPE":"U","NORAD_CAT_ID":47228,"ELEMENT_SET_NO":999,"REV_AT_EPOCH":23874,"BSTAR":0.00013826569,"MEAN_MOTION_DOT":2.9e-7,"MEAN_MOTION_DDOT":0},{"OBJECT_NAME":"COSMOS 792","OBJECT_ID":"1976-008B","EPOCH":"2026-03-09T13:21:45.690048","MEAN_MOTION":12.50419939,"ECCENTRICITY":0.00357341,"INCLINATION":74.0532,"RA_OF_ASC_NODE":116.9565,"ARG_OF_PERICENTER":272.9801,"MEAN_ANOMALY":203.7612,"EPHEMERIS_TYPE":0,"CLASSIFICATION_TYPE":"U","NORAD_CAT_ID":8608,"ELEMENT_SET_NO":999,"REV_AT_EPOCH":28744,"BSTAR":2.2046904e-5,"MEAN_MOTION_DOT":-1.3e-7,"MEAN_MOTION_DDOT":0}]
